ONEWEB-0306             
1 49188U 21083C   23315.61207303  .00000069  00000+0  14236-3 0  9993
2 49188  87.9160 164.1515 0001858  76.6477 283.4862 13.18687408105000
ONEWEB-0307             
1 49189U 21083D   23315.82466964  .00000206  00000+0  52904-3 0  9994
2 49189  87.8985 148.9699 0001496  86.3542 273.7758 13.13471388107727
ONEWEB-0320             
1 49190U 21083E   23315.54251747  .00000036  00000+0  57862-4 0  9996
2 49190  87.9163 164.1904 0001497  83.4678 276.6625 13.18685741104958
ONEWEB-0321             
1 49191U 21083F   23315.49915778 -.00000222  00000+0 -57685-3 0  9993
2 49191  87.9154 103.3018 0001380  84.5149 275.6142 13.20771515111607
ONEWEB-0322             
1 49192U 21083G   23315.59188700  .00000083  00000+0  19240-3 0  9990
2 49192  87.8983 149.0048 0000904  87.4744 272.6488 13.13473669106392
ONEWEB-0324             
1 49193U 21083H   23315.60364227  .00000067  00000+0  13671-3 0  9997
2 49193  87.9160 164.1565 0001565  96.9856 263.1454 13.18685070104983
ONEWEB-0325             
1 49194U 21083J   23315.60787410  .00000536  00000+0  13276-2 0  9992
2 49194  87.9211 164.1620 0001571  76.2851 283.8455 13.18685174104992
ONEWEB-0326             
1 49195U 21083K   23315.85023615  .00000079  00000+0  16885-3 0  9992
2 49195  87.9234 164.1047 0002164  90.3700 269.7680 13.18686861106292
